{"type": "FeatureCollection", "features": [ {"type": "Feature", "properties": {"norad_id": 33799, "name": "COSMOS 2251 DEB", "group": "cosmos-2251-debris", "lat": -71.81186731814847, "lon": -51.46649263554547, "alt_km": 646.379224311404, "timestamp": "2025-12-19T18:58:41.978573+00:00", "meta": {"OBJECT_NAME": "COSMOS 2251 DEB", "OBJECT_ID": "1993-036AQ", "EPOCH": "2025-12-18T14:31:36.155712", "MEAN_MOTION": 14.79685548, "ECCENTRICITY": 0.00228868, "INCLINATION": 74.0325, "RA_OF_ASC_NODE": 70.2372, "ARG_OF_PERICENTER": 138.8452, "MEAN_ANOMALY": 289.8067, "EPHEMERIS_TYPE": 0, "CLASSIFICATION_TYPE": "U", "NORAD_CAT_ID": 33799, "ELEMENT_SET_NO": 999, "REV_AT_EPOCH": 88898, "BSTAR": 0.00085660309, "MEAN_MOTION_DOT": 6.433e-05, "MEAN_MOTION_DDOT": 0}, "tle": {"line1": "1 33799U 93036AQ  25352.60527958  .00006433  00000+0  85660-3 0  9994", "line2": "2 33799  74.0325  70.2372 0022886 138.8452 289.8067 14.79685548888980"}}, "geometry": {"type": "Point", "coordinates": [-51.46649263554547, -71.81186731814847]}}, {"type": "Feature", "properties": {"norad_id": 33805, "name": "COSMOS 2251 DEB", "group": "cosmos-2251-debris", "lat": -22.794589168486123, "lon": 124.8291219200791, "alt_km": 696.6174697831666, "timestamp": "2025-12-19T18:58:41.978583+00:00", "meta": {"OBJECT_NAME": "COSMOS 2251 DEB", "OBJECT_ID": "1993-036AW", "EPOCH": "2025-12-19T06:31:27.961824", "MEAN_MOTION": 14.57869443, "ECCENTRICITY": 0.00600019, "INCLINATION": 74.0311, "RA_OF_ASC_NODE": 298.9043, "ARG_OF_PERICENTER": 125.9938, "MEAN_ANOMALY": 234.6811, "EPHEMERIS_TYPE": 0, "CLASSIFICATION_TYPE": "U", "NORAD_CAT_ID": 33805, "ELEMENT_SET_NO": 999, "REV_AT_EPOCH": 89322, "BSTAR": 0.0001683563, "MEAN_MOTION_DOT": 7.6e-06, "MEAN_MOTION_DDOT": 0}, "tle": {"line1": "1 33805U 93036AW  25353.27185141  .00000760  00000+0  16836-3 0  9996", "line2": "2 33805  74.0311 298.9043 0060001 125.9938 234.6811 14.57869443893226"}}, "geometry": {"type": "Point", "coordinates": [124.8291219200791, -22.794589168486123]}}, {"type": "Feature", "properties": {"norad_id": 33811, "name": "COSMOS 2251 DEB", "group": "cosmos-2251-debris", "lat": -15.629651002959928, "lon": 112.68496198693296, "alt_km": 575.798321293395, "timestamp": "2025-12-19T18:58:41.978593+00:00", "meta": {"OBJECT_NAME": "COSMOS 2251 DEB", "OBJECT_ID": "1993-036BC", "EPOCH": "2025-12-19T05:52:53.844096", "MEAN_MOTION": 15.0545077, "ECCENTRICITY": 0.00309966, "INCLINATION": 73.8374, "RA_OF_ASC_NODE": 289.1626, "ARG_OF_PERICENTER": 9.0271, "MEAN_ANOMALY": 110.9684, "EPHEMERIS_TYPE": 0, "CLASSIFICATION_TYPE": "U", "NORAD_CAT_ID": 33811, "ELEMENT_SET_NO": 999, "REV_AT_EPOCH": 90116, "BSTAR": 0.00077552937, "MEAN_MOTION_DOT": 0.00011234, "MEAN_MOTION_DDOT": 0}, "tle": {"line1": "1 33811U 93036BC  25353.24506764  .00011234  00000+0  77553-3 0  9999", "line2": "2 33811  73.8374 289.1626 0030996   9.0271 110.9684 15.05450770901160"}}, "geometry": {"type": "Point", "coordinates": [112.68496198693296, -15.629651002959928]}}, {"type": "Feature", "properties": {"norad_id": 33815, "name": "COSMOS 2251 DEB", "group": "cosmos-2251-debris", "lat": -64.20645862772312, "lon": 18.311768496266517, "alt_km": 512.5599816851509, "timestamp": "2025-12-19T18:58:41.978603+00:00", "meta": {"OBJECT_NAME": "COSMOS 2251 DEB", "OBJECT_ID": "1993-036BG", "EPOCH": "2025-12-18T22:02:32.918784", "MEAN_MOTION": 15.19619374, "ECCENTRICITY": 0.00014849, "INCLINATION": 73.9513, "RA_OF_ASC_NODE": 163.589, "ARG_OF_PERICENTER": 298.6947, "MEAN_ANOMALY": 220.3914, "EPHEMERIS_TYPE": 0, "CLASSIFICATION_TYPE": "U", "NORAD_CAT_ID": 33815, "ELEMENT_SET_NO": 999, "REV_AT_EPOCH": 88464, "BSTAR": 0.005145232, "MEAN_MOTION_DOT": 0.00111324, "MEAN_MOTION_DDOT": 0}, "tle": {"line1": "1 33815U 93036BG  25352.91843656  .00111324  00000+0  51452-2 0  9990", "line2": "2 33815  73.9513 163.5890 0001484 298.6947 220.3914 15.19619374884641"}}, "geometry": {"type": "Point", "coordinates": [18.311768496266517, -64.20645862772312]}}, {"type": "Feature", "properties": {"norad_id": 33816, "name": "COSMOS 2251 DEB", "group": "cosmos-2251-debris", "lat": -51.049431532603975, "lon": -65.6139613195653, "alt_km": 1082.95864964485, "timestamp": "2025-12-19T18:58:41.978628+00:00", "meta": {"OBJECT_NAME": "COSMOS 2251 DEB", "OBJECT_ID": "1993-036BH", "EPOCH": "2025-12-18T17:32:58.866432", "MEAN_MOTION": 13.81790117, "ECCENTRICITY": 0.02643942, "INCLINATION": 73.8953, "RA_OF_ASC_NODE": 95.241, "ARG_OF_PERICENTER": 106.9909, "MEAN_ANOMALY": 256.0368, "EPHEMERIS_TYPE": 0, "CLASSIFICATION_TYPE": "U", "NORAD_CAT_ID": 33816, "ELEMENT_SET_NO": 999, "REV_AT_EPOCH": 84756, "BSTAR": 0.00027922088, "MEAN_MOTION_DOT": 3.68e-06, "MEAN_MOTION_DDOT": 0}, "tle": {"line1": "1 33816U 93036BH  25352.73123688  .00000368  00000+0  27922-3 0  9998", "line2": "2 33816  73.8953  95.2410 0264394 106.9909 256.0368 13.81790117847569"}}, "geometry": {"type": "Point", "coordinates": [-65.6139613195653, -51.049431532603975]}}, {"type": "Feature", "properties": {"norad_id": 33818, "name": "COSMOS 2251 DEB", "group": "cosmos-2251-debris", "lat": -19.519391424586193, "lon": 145.85270752730253, "alt_km": 548.1525218367578, "timestamp": "2025-12-19T18:58:41.978641+00:00", "meta": {"OBJECT_NAME": "COSMOS 2251 DEB", "OBJECT_ID": "1993-036BK", "EPOCH": "2025-12-18T21:33:02.945664", "MEAN_MOTION": 15.12972197, "ECCENTRICITY": 0.00255895, "INCLINATION": 74.0765, "RA_OF_ASC_NODE": 153.5075, "ARG_OF_PERICENTER": 139.6951, "MEAN_ANOMALY": 19.3172, "EPHEMERIS_TYPE": 0, "CLASSIFICATION_TYPE": "U", "NORAD_CAT_ID": 33818, "ELEMENT_SET_NO": 999, "REV_AT_EPOCH": 89955, "BSTAR": 0.0019683565, "MEAN_MOTION_DOT": 0.00035137, "MEAN_MOTION_DDOT": 0}, "tle": {"line1": "1 33818U 93036BK  25352.89795076  .00035137  00000+0  19684-2 0  9990", "line2": "2 33818  74.0765 153.5075 0025589 139.6951  19.3172 15.12972197899556"}}, "geometry": {"type": "Point", "coordinates": [145.85270752730253, -19.519391424586193]}}, {"type": "Feature", "properties": {"norad_id": 33819, "name": "COSMOS 2251 DEB", "group": "cosmos-2251-debris", "lat": -39.785870643470616, "lon": 30.751239015126085, "alt_km": 852.219268425778, "timestamp": "2025-12-19T18:58:41.978651+00:00", "meta": {"OBJECT_NAME": "COSMOS 2251 DEB", "OBJECT_ID": "1993-036BL", "EPOCH": "2025-12-19T00:12:11.577312", "MEAN_MOTION": 14.32243816, "ECCENTRICITY": 0.0089303, "INCLINATION": 74.1776, "RA_OF_ASC_NODE": 198.5066, "ARG_OF_PERICENTER": 57.9423, "MEAN_ANOMALY": 91.4489, "EPHEMERIS_TYPE": 0, "CLASSIFICATION_TYPE": "U", "NORAD_CAT_ID": 33819, "ELEMENT_SET_NO": 999, "REV_AT_EPOCH": 87585, "BSTAR": 0.00047159072, "MEAN_MOTION_DOT": 1.305e-05, "MEAN_MOTION_DDOT": 0}, "tle": {"line1": "1 33819U 93036BL  25353.00846733  .00001305  00000+0  47159-3 0  9991", "line2": "2 33819  74.1776 198.5066 0089303  57.9423  91.4489 14.32243816875858"}}, "geometry": {"type": "Point", "coordinates": [30.751239015126085, -39.785870643470616]}}, {"type": "Feature", "properties": {"norad_id": 33821, "name": "COSMOS 2251 DEB", "group": "cosmos-2251-debris", "lat": 68.4864574185825, "lon": -98.67010225615583, "alt_km": 461.4638638337592, "timestamp": "2025-12-19T18:58:41.978662+00:00", "meta": {"OBJECT_NAME": "COSMOS 2251 DEB", "OBJECT_ID": "1993-036BN", "EPOCH": "2025-12-18T18:54:52.410240", "MEAN_MOTION": 15.2567876, "ECCENTRICITY": 0.0050466, "INCLINATION": 74.0297, "RA_OF_ASC_NODE": 130.046, "ARG_OF_PERICENTER": 161.7045, "MEAN_ANOMALY": 198.5987, "EPHEMERIS_TYPE": 0, "CLASSIFICATION_TYPE": "U", "NORAD_CAT_ID": 33821, "ELEMENT_SET_NO": 999, "REV_AT_EPOCH": 75093, "BSTAR": 0.0010297561, "MEAN_MOTION_DOT": 0.00027266, "MEAN_MOTION_DDOT": 0}, "tle": {"line1": "1 33821U 93036BN  25352.78810660  .00027266  00000+0  10298-2 0  9995", "line2": "2 33821  74.0297 130.0460 0050466 161.7045 198.5987 15.25678760750935"}}, "geometry": {"type": "Point", "coordinates": [-98.67010225615583, 68.4864574185825]}}, {"type": "Feature", "properties": {"norad_id": 33822, "name": "COSMOS 2251 DEB", "group": "cosmos-2251-debris", "lat": -68.9211854213653, "lon": 133.41036727684752, "alt_km": 796.1431772396891, "timestamp": "2025-12-19T18:58:41.978672+00:00", "meta": {"OBJECT_NAME": "COSMOS 2251 DEB", "OBJECT_ID": "1993-036BP", "EPOCH": "2025-12-18T23:34:28.363008", "MEAN_MOTION": 14.13099087, "ECCENTRICITY": 0.01530225, "INCLINATION": 74.0677, "RA_OF_ASC_NODE": 182.6616, "ARG_OF_PERICENTER": 227.4613, "MEAN_ANOMALY": 263.7605, "EPHEMERIS_TYPE": 0, "CLASSIFICATION_TYPE": "U", "NORAD_CAT_ID": 33822, "ELEMENT_SET_NO": 999, "REV_AT_EPOCH": 86142, "BSTAR": 0.00099656309, "MEAN_MOTION_DOT": 2.056e-05, "MEAN_MOTION_DDOT": 0}, "tle": {"line1": "1 33822U 93036BP  25352.98227272  .00002056  00000+0  99656-3 0  9995", "line2": "2 33822  74.0677 182.6616 0153022 227.4613 263.7605 14.13099087861421"}}, "geometry": {"type": "Point", "coordinates": [133.41036727684752, -68.9211854213653]}}, {"type": "Feature", "properties": {"norad_id": 33823, "name": "COSMOS 2251 DEB", "group": "cosmos-2251-debris", "lat": 67.65596844582535, "lon": -88.00525783679875, "alt_km": 1028.4101271294876, "timestamp": "2025-12-19T18:58:41.978682+00:00", "meta": {"OBJECT_NAME": "COSMOS 2251 DEB", "OBJECT_ID": "1993-036BQ", "EPOCH": "2025-12-19T03:33:48.183840", "MEAN_MOTION": 13.98965439, "ECCENTRICITY": 0.02093816, "INCLINATION": 73.8094, "RA_OF_ASC_NODE": 138.0983, "ARG_OF_PERICENTER": 262.228, "MEAN_ANOMALY": 210.846, "EPHEMERIS_TYPE": 0, "CLASSIFICATION_TYPE": "U", "NORAD_CAT_ID": 33823, "ELEMENT_SET_NO": 999, "REV_AT_EPOCH": 85699, "BSTAR": 0.00059480991, "MEAN_MOTION_DOT": 1.01e-05, "MEAN_MOTION_DDOT": 0}, "tle": {"line1": "1 33823U 93036BQ  25353.14847435  .00001010  00000+0  59481-3 0  9995", "line2": "2 33823  73.8094 138.0983 0209381 262.2280 210.8460 13.98965439856994"}}, "geometry": {"type": "Point", "coordinates": [-88.00525783679875, 67.65596844582535]}}]}